<?xml version="1.0" encoding="UTF-8"?>
<kml xmlns="http://www.opengis.net/kml/2.2">
  <Document>
    <name>SMAN 11 Kab. Tangerang</name>
    <Style id="poly-A1C2FA-1200-77-nodesc-normal">
      <LineStyle>
        <color>fffac2a1</color>
        <width>1.2</width>
      </LineStyle>
      <PolyStyle>
        <color>4dfac2a1</color>
        <fill>1</fill>
        <outline>1</outline>
      </PolyStyle>
      <BalloonStyle>
        <text><![CDATA[<h3>$[name]</h3>]]></text>
      </BalloonStyle>
    </Style>
    <Style id="poly-A1C2FA-1200-77-nodesc-highlight">
      <LineStyle>
        <color>fffac2a1</color>
        <width>1.8</width>
      </LineStyle>
      <PolyStyle>
        <color>4dfac2a1</color>
        <fill>1</fill>
        <outline>1</outline>
      </PolyStyle>
      <BalloonStyle>
        <text><![CDATA[<h3>$[name]</h3>]]></text>
      </BalloonStyle>
    </Style>
    <StyleMap id="poly-A1C2FA-1200-77-nodesc">
      <Pair>
        <key>normal</key>
        <styleUrl>#poly-A1C2FA-1200-77-nodesc-normal</styleUrl>
      </Pair>
      <Pair>
        <key>highlight</key>
        <styleUrl>#poly-A1C2FA-1200-77-nodesc-highlight</styleUrl>
      </Pair>
    </StyleMap>
    <Placemark>
      <name>Poligon 4</name>
      <styleUrl>#poly-A1C2FA-1200-77-nodesc</styleUrl>
      <Polygon>
        <outerBoundaryIs>
          <LinearRing>
            <tessellate>1</tessellate>
            <coordinates>
              106.57709,-6.1175484,0
              106.5773462,-6.1184805,0
              106.5782018,-6.1183004,0
              106.5779282,-6.117375,0
              106.5775158,-6.1174531,0
              106.57709,-6.1175484,0
            </coordinates>
          </LinearRing>
        </outerBoundaryIs>
      </Polygon>
    </Placemark>
  </Document>
</kml>
